NORAD_CAT_ID,OBJECT_NAME,OBJECT_TYPE,EPOCH,MEAN_MOTION,ECCENTRICITY,INCLINATION,RA_OF_ASC_NODE,ARG_OF_PERICENTER,MEAN_ANOMALY,BSTAR,MEAN_MOTION_DOT,MEAN_MOTION_DDOT,TLE_LINE0,TLE_LINE1,TLE_LINE2,SEMIMAJOR_AXIS,PERIOD,APOGEE,PERIGEE,DECAYED
49437.0,STARLINK-3130,PAYLOAD,2023-12-17 22:18:45,15.08815313,0.0001888,53.2184,257.7479,58.3437,301.7739,0.0005593,8.618e-05,0.0,0 STARLINK-3130,1 49437U 21104AF  23351.92969090  .00008618  00000-0  55930-3 0  9991,2 49437  53.2184 257.7479 0001888  58.3437 301.7739 15.08815313116214,6917.956,95.439,541.127,538.515,0.0
49437.0,STARLINK-3130,PAYLOAD,2023-12-18 01:29:31,15.08816938,0.0002047,53.2187,257.1525,56.3076,303.8111,0.00063689,9.856e-05,0.0,0 STARLINK-3130,1 49437U 21104AF  23352.06217138  .00009856  00000-0  63689-3 0  9991,2 49437  53.2187 257.1525 0002047  56.3076 303.8111 15.08816938117300,6917.951,95.439,541.232,538.4,0.0
49437.0,STARLINK-3130,PAYLOAD,2023-12-18 22:09:32,15.08837399,0.0001695,53.218,253.2849,60.1514,299.9647,-3.8098e-05,-8.94e-06,0.0,0 STARLINK-3130,1 49437U 21104AF  23352.92329799 -.00000894  00000-0 -38098-4 0  9995,2 49437  53.2180 253.2849 0001695  60.1514 299.9647 15.08837399116365,6917.888,95.438,540.926,538.581,0.0
49437.0,STARLINK-3130,PAYLOAD,2023-12-19 01:20:18,15.08840522,0.0001683,53.2181,252.6905,72.6765,287.4411,-1.9857e-05,-6.04e-06,0.0,0 STARLINK-3130,1 49437U 21104AF  23353.05577522 -.00000604  00000-0 -19857-4 0  9990,2 49437  53.2181 252.6905 0001683  72.6765 287.4411 15.08840522116380,6917.879,95.438,540.908,538.58,0.0
49437.0,STARLINK-3130,PAYLOAD,2023-12-19 23:35:42,15.08843657,0.0001625,53.2176,248.5279,78.2831,281.8343,-3.7029e-05,-8.77e-06,0.0,0 STARLINK-3130,1 49437U 21104AF  23353.98313429 -.00000877  00000-0 -37029-4 0  9999,2 49437  53.2176 248.5279 0001625  78.2831 281.8343 15.08843657117592,6917.869,95.437,540.858,538.61,0.0
49437.0,STARLINK-3130,PAYLOAD,2023-12-20 21:51:06,15.0884374,0.0001556,53.2166,244.3626,88.7724,271.3447,0.00021562,3.146e-05,0.0,0 STARLINK-3130,1 49437U 21104AF  23354.91049398  .00003146  00000-0  21562-3 0  9998,2 49437  53.2166 244.3626 0001556  88.7724 271.3447 15.08843740116660,6917.869,95.437,540.81,538.658,0.0
49437.0,STARLINK-3130,PAYLOAD,2023-12-20 23:26:29,15.08846421,0.0001604,53.217,244.0625,86.0701,274.0474,0.00024912,3.68e-05,0.0,0 STARLINK-3130,1 49437U 21104AF  23354.97673253  .00003680  00000-0  24912-3 0  9992,2 49437  53.2170 244.0625 0001604  86.0701 274.0474 15.08846421116671,6917.861,95.437,540.835,538.616,0.0
49437.0,STARLINK-3130,PAYLOAD,2023-12-21 21:41:54,15.08837575,0.0001324,53.2166,239.9047,96.9312,263.1831,2.3641e-05,8.8e-07,0.0,0 STARLINK-3130,1 49437U 21104AF  23355.90409823  .00000088  00000-0  23641-4 0  9994,2 49437  53.2166 239.9047 0001324  96.9312 263.1831 15.08837575116816,6917.888,95.438,540.669,538.837,0.0
49437.0,STARLINK-3130,PAYLOAD,2023-12-21 23:17:17,15.0883835,0.0001442,53.2165,239.6071,105.1953,254.9199,3.5338e-05,2.74e-06,0.0,0 STARLINK-3130,1 49437U 21104AF  23355.97033750  .00000274  00000-0  35338-4 0  9996,2 49437  53.2165 239.6071 0001442 105.1953 254.9199 15.08838350117890,6917.885,95.438,540.748,538.753,0.0
49437.0,STARLINK-3130,PAYLOAD,2023-12-22 21:32:40,15.0884519,0.0001353,53.2161,235.4439,107.012,253.102,1.9845e-05,2.8e-07,0.0,0 STARLINK-3130,1 49437U 21104AF  23356.89769404  .00000028  00000-0  19845-4 0  9992,2 49437  53.2161 235.4439 0001353 107.0120 253.1020 15.08845190116967,6917.865,95.437,540.666,538.794,0.0
49437.0,STARLINK-3130,PAYLOAD,2023-12-23 15:01:55,15.08841704,0.0001252,53.2159,232.1741,102.6749,257.4383,0.00014133,1.962e-05,0.0,0 STARLINK-3130,1 49437U 21104AF  23357.62633628  .00001962  00000-0  14133-3 0  9994,2 49437  53.2159 232.1741 0001252 102.6749 257.4383 15.08841704117079,6917.875,95.437,540.606,538.874,0.0
49437.0,STARLINK-3130,PAYLOAD,2023-12-23 19:48:04,15.08849909,0.0001229,53.2175,231.289,102.3891,257.7239,0.00021005,3.058e-05,0.0,0 STARLINK-3130,1 49437U 21104AF  23357.82505063  .00003058  00000-0  21005-3 0  9991,2 49437  53.2175 231.2890 0001229 102.3891 257.7239 15.08849909118171,6917.85,95.437,540.565,538.865,0.0
49437.0,STARLINK-3130,PAYLOAD,2023-12-23 21:23:26,15.08864369,0.0001362,53.2157,230.9836,115.6162,244.4971,0.00044086,6.74e-05,0.0,0 STARLINK-3130,1 49437U 21104AF  23357.89128389  .00006740  00000-0  44086-3 0  9995,2 49437  53.2157 230.9836 0001362 115.6162 244.4971 15.08864369117119,6917.806,95.436,540.613,538.729,0.0
49437.0,STARLINK-3130,PAYLOAD,2023-12-24 02:09:35,15.08871929,0.0001204,53.215,230.0895,109.3858,250.7264,0.00051482,7.922e-05,0.0,0 STARLINK-3130,1 49437U 21104AF  23358.08999775  .00007922  00000-0  51482-3 0  9993,2 49437  53.2150 230.0895 0001204 109.3858 250.7264 15.08871929118212,6917.783,95.436,540.481,538.815,0.0
49437.0,STARLINK-3130,PAYLOAD,2023-12-24 19:38:50,15.08845474,0.0002093,53.2146,226.8056,135.099,225.0172,-1.2468e-05,-4.87e-06,0.0,0 STARLINK-3130,1 49437U 21104AF  23358.81864571 -.00000487  00000-0 -12468-4 0  9992,2 49437  53.2146 226.8056 0002093 135.0990 225.0172 15.08845474118320,6917.864,95.437,541.177,538.281,0.0
49437.0,STARLINK-3130,PAYLOAD,2023-12-24 21:14:15,15.0883426,0.0001446,53.2157,226.5306,79.2257,280.8898,-9.0593e-05,-1.729e-05,0.0,0 STARLINK-3130,1 49437U 21104AF  23358.88489631 -.00001729  00000-0 -90593-4 0  9994,2 49437  53.2157 226.5306 0001446  79.2257 280.8898 15.08834260117260,6917.898,95.438,540.763,538.763,0.0
49437.0,STARLINK-3130,PAYLOAD,2023-12-25 02:00:24,15.08839064,0.0001446,53.2153,225.6259,98.4921,261.6235,-1.3214e-05,-4.98e-06,0.0,0 STARLINK-3130,1 49437U 21104AF  23359.08361126 -.00000498  00000-0 -13214-4 0  9992,2 49437  53.2153 225.6259 0001446  98.4921 261.6235 15.08839064118365,6917.883,95.438,540.749,538.748,0.0
49437.0,STARLINK-3130,PAYLOAD,2023-12-25 21:05:01,15.08842271,0.0001597,53.2158,222.0562,103.3607,256.7563,-0.00019305,-3.359e-05,0.0,0 STARLINK-3130,1 49437U 21104AF  23359.87849305 -.00003359  00000-0 -19305-3 0  9994,2 49437  53.2158 222.0562 0001597 103.3607 256.7563 15.08842271117410,6917.873,95.437,540.843,538.634,0.0
49437.0,STARLINK-3130,PAYLOAD,2023-12-26 00:15:47,15.08845377,0.0001611,53.2161,221.4612,101.0813,259.0361,-0.00011803,-2.166e-05,0.0,0 STARLINK-3130,1 49437U 21104AF  23360.01097180 -.00002166  00000-0 -11803-3 0  9998,2 49437  53.2161 221.4612 0001611 101.0813 259.0361 15.08845377117438,6917.864,95.437,540.843,538.614,0.0
49437.0,STARLINK-3130,PAYLOAD,2023-12-26 19:20:26,15.08827842,0.0001738,53.2167,217.8917,71.9969,288.1212,0.00029456,4.401e-05,0.0,0 STARLINK-3130,1 49437U 21104AF  23360.80586686  .00004401  00000-0  29456-3 0  9994,2 49437  53.2167 217.8917 0001738  71.9969 288.1212 15.08827842118625,6917.918,95.438,540.985,538.58,0.0
49437.0,STARLINK-3130,PAYLOAD,2023-12-26 20:55:49,15.08834437,0.0001868,53.2168,217.5944,69.8528,290.2665,0.0001226,1.663e-05,0.0,0 STARLINK-3130,1 49437U 21104AF  23360.87210423  .00001663  00000-0  12260-3 0  9996,2 49437  53.2168 217.5944 0001868  69.8528 290.2665 15.08834437117560,6917.897,95.438,541.055,538.47,0.0
49437.0,STARLINK-3130,PAYLOAD,2023-12-27 00:06:36,15.08835803,0.0001871,53.2167,216.9998,71.0048,289.1147,0.00012308,1.671e-05,0.0,0 STARLINK-3130,1 49437U 21104AF  23361.00458422  .00001671  00000-0  12308-3 0  9997,2 49437  53.2167 216.9998 0001871  71.0048 289.1147 15.08835803117589,6917.893,95.438,541.053,538.464,0.0
49437.0,STARLINK-3130,PAYLOAD,2023-12-27 19:11:13,15.08845782,0.0001519,53.2156,213.4332,90.894,269.2226,0.00022368,3.274e-05,0.0,0 STARLINK-3130,1 49437U 21104AF  23361.79945958  .00003274  00000-0  22368-3 0  9996,2 49437  53.2156 213.4332 0001519  90.8940 269.2226 15.08845782118776,6917.863,95.437,540.779,538.677,0.0
49437.0,STARLINK-3130,PAYLOAD,2023-12-27 20:46:36,15.08845882,0.0001525,53.2155,213.1359,90.0406,270.0761,0.00021633,3.157e-05,0.0,0 STARLINK-3130,1 49437U 21104AF  23361.86569912  .00003157  00000-0  21633-3 0  9990,2 49437  53.2155 213.1359 0001525  90.0406 270.0761 15.08845882117715,6917.862,95.437,540.782,538.672,0.0
49437.0,STARLINK-3130,PAYLOAD,2023-12-28 14:15:51,15.08837869,0.0001551,53.2146,209.866,89.9108,270.2062,6.2989e-05,7.15e-06,0.0,0 STARLINK-3130,1 49437U 21104AF  23362.59434390  .00000715  00000-0  62989-4 0  9999,2 49437  53.2146 209.8660 0001551  89.9108 270.2062 15.08837869117821,6917.887,95.438,540.825,538.679,0.0
49437.0,STARLINK-3130,PAYLOAD,2023-12-28 19:02:00,15.08838136,0.0001552,53.2151,208.9737,96.5567,263.5602,5.1887e-05,5.38e-06,0.0,0 STARLINK-3130,1 49437U 21104AF  23362.79306338  .00000538  00000-0  51887-4 0  9999,2 49437  53.2151 208.9737 0001552  96.5567 263.5602 15.08838136118921,6917.886,95.438,540.825,538.677,0.0
49437.0,STARLINK-3130,PAYLOAD,2023-12-28 20:37:23,15.08836639,0.0001504,53.2164,208.6763,95.4948,264.6216,4.7538e-05,4.69e-06,0.0,0 STARLINK-3130,1 49437U 21104AF  23362.85930489  .00000469  00000-0  47538-4 0  9997,2 49437  53.2164 208.6763 0001504  95.4948 264.6216 15.08836639117860,6917.891,95.438,540.796,538.715,0.0
49437.0,STARLINK-3130,PAYLOAD,2023-12-28 23:48:10,15.08835933,0.0001521,53.2164,208.082,95.419,264.6975,3.3957e-05,2.52e-06,0.0,0 STARLINK-3130,1 49437U 21104AF  23362.99178565  .00000252  00000-0  33957-4 0  9991,2 49437  53.2164 208.0820 0001521  95.4190 264.6975 15.08835933117886,6917.893,95.438,540.81,538.706,0.0
49437.0,STARLINK-3130,PAYLOAD,2023-12-29 20:28:10,15.08842504,0.0001522,53.2164,204.2162,98.9812,261.1353,3.6447e-05,2.92e-06,0.0,0 STARLINK-3130,1 49437U 21104AF  23363.85290042  .00000292  00000-0  36447-4 0  9993,2 49437  53.2164 204.2162 0001522  98.9812 261.1353 15.08842504118013,6917.873,95.437,540.791,538.685,0.0
49437.0,STARLINK-3130,PAYLOAD,2023-12-30 13:57:25,15.08839254,0.0001462,53.2164,200.9466,91.5518,268.5641,0.00010328,1.356e-05,0.0,0 STARLINK-3130,1 49437U 21104AF  23364.58154156  .00001356  00000-0  10328-3 0  9990,2 49437  53.2164 200.9466 0001462  91.5518 268.5641 15.08839254118129,6917.883,95.438,540.759,538.736,0.0
